# Made by eph2tle, compiled Mar 18 2025 17:40:23
# Run at Wed Mar 19 16:33:12 2025 UTC
#
#    The following TLEs (Two-Line Elements) were generated by fitting
# a numerically-integrated ephemeris,  based on the orbit given below,
# to the SDP4/SGP4 models.  Each TLE is good for the interval between
# its epoch and the epoch of the subsequent TLE (usually one day).
# The maximum deviation between the numerically integrated ephemerides
# and the TLE-based ephemeris, in kilometers,  is given for each TLE
# as the "worst residual".
#
#    This fitting is done using the 'eph2tle' code packaged with Find_Orb.
# The code has details on how the TLEs were computed :
#
#    https://github.com/Bill-Gray/find_orb/eph2tle.cpp
#
#    Be warned:  the error given is that between the numerically
# integrated ephems and the TLE model.  There will usually be at
# least some additional difference between the ephems and the actual
# motion of the satellite,  especially if the ephemerides are based
# on a short arc.  If the following orbital elements say something
# like "[based on] 10 observations 2015 Jan. 1-13",  and the TLEs
# are for 2015 May,  the extrapolation may be tenuous at best.  If
# your application requires a specific level of accuracy,  you may
# want to contact me;  I can give you some idea as to the fit of the
# underlying data (and possibly TLEs based on newer data).
#
#   You can usually find the underlying observational data,  and the
# fitted orbit,  residuals,  ephemerides,  and sometimes some comments
# about the object,  among the pages listed at
#
#    https://www.projectpluto.com/pluto/mpecs/pseudo.htm
#
#    WARNING:  for this object,  "normal" TLEs cannot be fitted.  (This
# usually means an object with an hyperbolic or nearly-parabolic orbit.)
# For this and similar cases,   an alternative model is used,  in which
# most of the traditional TLE data is replaced by six signed 8-digit hex
# numbers.  These six numbers are a state vector,  numerically integrated
# using a simplified force model.  This is necessary for objects at L2 or
# L1,  and sometimes for objects in high orbits where the SDP4/SGP4 model
# fails.  Some documentation is in 'get_el.cpp' in the source code at
# https://www.github.com/Bill-Gray/sat_code ; look for 'hex' in that file,
# with the actual integration done in 'sdp4.cpp'.  But be aware:  it's my
# own extension,  doesn't work with other code,  and is therefore used
# only when necessary.
#
#    Also,  if you use a TLE outside the "correct" time range (between
# its MJD and that of the next TLE),  all bets are off.  I've carefully
# computed and minimized the worst error over the "correct" time frame,
# but the ephemeris may (or may not) diverge wildly outside of it.
#
# Ephem range: 60676.000000 60898.000000 1.000000
# Created Wed Mar 19 12:33:09 2025
# Ephemeris start:  1 Jan 2025  0:00:00
# Ephemeris end:   11 Aug 2025  0:00:00
# Times are all TDT
# Positions/velocities are in equatorial J2000
# Orbital elements:  2019-040A = NORAD 44432 = Spektr-RG
#    Perihelion 2025 Jan 29.547302 +/- 0.0002728 TT = 13:08:06.9 (JD 2460705.047302)
# Epoch 2025 Feb  8.0 TT; AMR 0.01068 +/- 0.00065698 m^2/kg   Earth MOID: 0.0091
# M   8.808034502 +/- 0.0002604       (J2000 ecliptic)             Find_Orb
# n   0.931801129 +/- 6.6226e-7       Peri.  146.908073 +/- 0.0003379
# a   1.038135145 +/- 4.9188e-7       Node   342.360679 +/- 0.0000768
# e   0.04155364 +/- 3.4927e-7        Incl.    0.240467 +/- 2.7841e-6
# P   1.058/386.341d         H 27.17  G  0.15   U  3.2
# q 0.994996849 +/- 1.0899e-7    Q 1.081273441 +/- 8.7489e-7
# 257 of 314 observations 2024 Dec. 30-2025 Mar. 19; mean residual 0".615
#
# 1 NoradU COSPAR   Epoch.epoch     dn/dt/2  d2n/dt2/6 BSTAR    T El# C
# 2 NoradU Inclina RAAscNode Eccent  ArgPeri MeanAno  MeanMotion Rev# C

# Worst residual: 0.76 km
# MJD 60676.000000 (2025 Jan  1  0:00)
2019-040A = NORAD 44432 = Spektr-RG
1 44432U 19040A   24366.99919926 -002FDUNP +00M4602H +00GPKUNCH 26358
2 44432                          -00009P4D -00004O07 +000074JL     06

# Worst residual: 0.75 km
# MJD 60677.000000 (2025 Jan  2  0:00)
2019-040A = NORAD 44432 = Spektr-RG
1 44432U 19040A   25001.99919926 -002HSJM0 +00M34RV9 +00GR7ONNH 26356
2 44432                          -0000AE8P -00003YML +00006HH8     06

# Worst residual: 0.76 km
# MJD 60678.000000 (2025 Jan  3  0:00)
2019-040A = NORAD 44432 = Spektr-RG
1 44432U 19040A   25002.99919926 -002KE1NE +00M29AFG +00GSORPAH 26356
2 44432                          -0000B9QR -00003CBY +00005SJG     08

# Worst residual: 0.78 km
# MJD 60679.000000 (2025 Jan  4  0:00)
2019-040A = NORAD 44432 = Spektr-RG
1 44432U 19040A   25003.99919926 -002N7SIC +00M1IOFX +00GTZL87H 26358
2 44432                          -0000CAS5 -00002U6C +0000516Y     06

# Worst residual: 0.81 km
# MJD 60680.000000 (2025 Jan  5  0:00)
2019-040A = NORAD 44432 = Spektr-RG
1 44432U 19040A   25004.99919926 -002QAZ8B +00M0VU8T +00GV3IGEH 26355
2 44432                          -0000DG76 -00002H0R +00004704     01

# Worst residual: 0.87 km
# MJD 60681.000000 (2025 Jan  6  0:00)
2019-040A = NORAD 44432 = Spektr-RG
1 44432U 19040A   25005.99919926 -002TOHRF +00M0BHVQ +00GVZTHBH 26357
2 44432                          -0000EOLP -000029GA +000039OQ     04

# Worst residual: 0.96 km
# MJD 60682.000000 (2025 Jan  7  0:00)
2019-040A = NORAD 44432 = Spektr-RG
1 44432U 19040A   25006.99919926 -002XCVDM +00LZS9PB +00GWNQNXH 26357
2 44432                          -0000FYGW -000027QF +0000294N     05

# Worst residual: 1.07 km
# MJD 60683.000000 (2025 Jan  8  0:00)
2019-040A = NORAD 44432 = Spektr-RG
1 44432U 19040A   25007.99919926 -0031CA1A +00LZ8R97 +00GX2I6CH 26354
2 44432                          -0000H89A -00002BSB +000015EG     06

# Worst residual: 1.15 km
# MJD 60684.000000 (2025 Jan  9  0:00)
2019-040A = NORAD 44432 = Spektr-RG
1 44432U 19040A   25008.99919926 -0035MIPI +00LYNM8S +00GX7DLAH 26351
2 44432                          -0000IGIV -00002L6X -0000018Q     09

# Worst residual: 1.18 km
# MJD 60685.000000 (2025 Jan 10  0:00)
2019-040A = NORAD 44432 = Spektr-RG
1 44432U 19040A   25009.99919926 -003A72Q3 +00LXZNDM +00GX1PFLH 26355
2 44432                          -0000JM19 -00002Z7T -00001ADM     02

# Worst residual: 1.17 km
# MJD 60686.000000 (2025 Jan 11  0:00)
2019-040A = NORAD 44432 = Spektr-RG
1 44432U 19040A   25010.99919926 -003F1620 +00LX7UVP +00GWKYJTH 26350
2 44432                          -0000KNVG -00003GV8 -00002LFM     05

# Worst residual: 1.15 km
# MJD 60687.000000 (2025 Jan 12  0:00)
2019-040A = NORAD 44432 = Spektr-RG
1 44432U 19040A   25011.99919926 -003K3UEV +00LWBIEC +00GVSR7VH 26355
2 44432                          -0000LLIM -000040YZ -00003XQF     09

# Worst residual: 1.16 km
# MJD 60688.000000 (2025 Jan 13  0:00)
2019-040A = NORAD 44432 = Spektr-RG
1 44432U 19040A   25012.99919926 -003PE2T0 +00LVA61U +00GUOVRUH 26355
2 44432                          -0000MEV1 -00004MAQ -00005AK9     01

# Worst residual: 1.19 km
# MJD 60689.000000 (2025 Jan 14  0:00)
2019-040A = NORAD 44432 = Spektr-RG
1 44432U 19040A   25013.99919926 -003UUV2Z +00LU3OEA +00GT9ANZH 26351
2 44432                          -0000N472 -000057OO -00006N8F     01

# Worst residual: 1.22 km
# MJD 60690.000000 (2025 Jan 15  0:00)
2019-040A = NORAD 44432 = Spektr-RG
1 44432U 19040A   25014.99919926 -0040HAYP +00LSS5A5 +00GRI3UNH 26352
2 44432                          -0000NQ41 -00005S5S -00007Z62     02

# Worst residual: 1.21 km
# MJD 60691.000000 (2025 Jan 16  0:00)
2019-040A = NORAD 44432 = Spektr-RG
1 44432U 19040A   25015.99919926 -00468O8M +00LRBVTX +00GPFJNIH 26352
2 44432                          -0000O9EJ -00006B0Q -000099XV     05

# Worst residual: 1.13 km
# MJD 60692.000000 (2025 Jan 17  0:00)
2019-040A = NORAD 44432 = Spektr-RG
1 44432U 19040A   25016.99919926 -004C4G0X +00LPRC0Z +00GN1XDGH 26356
2 44432                          -0000OQYD -00006RUB -0000AJAA     08

# Worst residual: 1.02 km
# MJD 60693.000000 (2025 Jan 18  0:00)
2019-040A = NORAD 44432 = Spektr-RG
1 44432U 19040A   25017.99919926 -004I4B5B +00LO30CW +00GKDLY4H 26358
2 44432                          -0000P7NJ -000076GJ -0000BR32     07

# Worst residual: 0.92 km
# MJD 60694.000000 (2025 Jan 19  0:00)
2019-040A = NORAD 44432 = Spektr-RG
1 44432U 19040A   25018.99919926 -004O85VI +00LMBFVL +00GHEYUCH 26356
2 44432                          -0000POBU -00007IWB -0000CXBS     09

# Worst residual: 0.87 km
# MJD 60695.000000 (2025 Jan 20  0:00)
2019-040A = NORAD 44432 = Spektr-RG
1 44432U 19040A   25019.99919926 -004UG3A8 +00LKH4SM +00GE6DA1H 26356
2 44432                          -0000Q5Q4 -00007TBF -0000E22Q     02

# Worst residual: 0.92 km
# MJD 60696.000000 (2025 Jan 21  0:00)
2019-040A = NORAD 44432 = Spektr-RG
1 44432U 19040A   25020.99919926 -0050SCIQ +00LIKJK1 +00GAO5Q7H 26350
2 44432                          -0000QOI6 -000081YJ -0000F5FQ     02

# Worst residual: 1.03 km
# MJD 60697.000000 (2025 Jan 22  0:00)
2019-040A = NORAD 44432 = Spektr-RG
1 44432U 19040A   25021.99919926 -00579C5O +00LGM29W +00G6WNM6H 26352
2 44432                          -0000R99M -0000894B -0000G7JL     08

# Worst residual: 1.15 km
# MJD 60698.000000 (2025 Jan 23  0:00)
2019-040A = NORAD 44432 = Spektr-RG
1 44432U 19040A   25022.99919926 -005DVLRU +00LEM0BJ +00G2W53YH 26359
2 44432                          -0000RWKN -00008F4Y -0000H8K0     02

# Worst residual: 1.22 km
# MJD 60699.000000 (2025 Jan 24  0:00)
2019-040A = NORAD 44432 = Spektr-RG
1 44432U 19040A   25023.99919926 -005KNTPX +00LCKLWN +00FYMUWHH 26350
2 44432                          -0000SMZ0 -00008KEO -0000I8NN     08

# Worst residual: 1.20 km
# MJD 60700.000000 (2025 Jan 25  0:00)
2019-040A = NORAD 44432 = Spektr-RG
1 44432U 19040A   25024.99919926 -005RMT1T +00LAHZHU +00FU4ZWDH 26356
2 44432                          -0000TH02 -00008PER -0000J82U     02

